NORAD_CAT_ID,OBJECT_NAME,OBJECT_TYPE,EPOCH,MEAN_MOTION,ECCENTRICITY,INCLINATION,RA_OF_ASC_NODE,ARG_OF_PERICENTER,MEAN_ANOMALY,BSTAR,MEAN_MOTION_DOT,MEAN_MOTION_DDOT,TLE_LINE0,TLE_LINE1,TLE_LINE2,SEMIMAJOR_AXIS,PERIOD,APOGEE,PERIGEE,DECAYED
53934.0,STARLINK-4775,PAYLOAD,2023-01-15 22:00:01,15.31335733,0.0001395,53.2125,56.9024,88.8747,100.8728,-0.0386139999999999,-0.0108502,0.0,0 STARLINK-4775,1 53934U 22119BA  23015.91668981 -.01085020  00000-0 -38614-1 0  9999,2 53934  53.2125  56.9024 0001395  88.8747 100.8728 15.31335733  1304,6849.963000000001,94.036,472.784,470.8730000000001,0.0
53934.0,STARLINK-4775,PAYLOAD,2023-01-16 14:00:01,15.29736691,0.0001409999999999,53.2121,53.81,80.8002,184.2296,-0.042167,-0.01123529,0.0,0 STARLINK-4775,1 53934U 22119BA  23016.58334491 -.01123529  00000-0 -42167-1 0  9994,2 53934  53.2121  53.8100 0001410  80.8002 184.2296 15.29736691 18270,6854.736,94.134,477.567,475.634,0.0
53934.0,STARLINK-4775,PAYLOAD,2023-01-16 22:00:00,15.28899368,0.0001317,53.2122,52.264,91.5379,209.7156,-0.04189,-0.01090534,0.0,0 STARLINK-4775,1 53934U 22119BA  23016.91667824 -.01090534  00000-0 -41890-1 0  9991,2 53934  53.2122  52.2640 0001317  91.5379 209.7156 15.28899368  1309,6857.238,94.185,480.006,478.2,0.0
53934.0,STARLINK-4775,PAYLOAD,2023-01-17 14:00:01,15.27302112,0.0001234,53.2118,49.1829,74.8196,295.9113,-0.045939,-0.01134389,0.0,0 STARLINK-4775,1 53934U 22119BA  23017.58334491 -.01134389  00000-0 -45939-1 0  9991,2 53934  53.2118  49.1829 0001234  74.8196 295.9113 15.27302112 18434,6862.018,94.284,484.73,483.037,0.0
53934.0,STARLINK-4775,PAYLOAD,2023-01-17 22:00:00,15.26459356,0.0001257,53.2118,47.6425,86.4421,317.581,-0.045222,-0.01092187,0.0,0 STARLINK-4775,1 53934U 22119BA  23017.91667824 -.01092187  00000-0 -45222-1 0  9991,2 53934  53.2118  47.6425 0001257  86.4421 317.5810 15.26459356  1309,6864.544,94.336,487.272,485.546,0.0
53934.0,STARLINK-4775,PAYLOAD,2023-01-18 06:00:00,15.25676901,0.0001315,53.2119,46.107,81.6057,354.711,-0.049059,-0.01166825,0.0,0 STARLINK-4775,1 53934U 22119BA  23018.25001157 -.01166825  00000-0 -49059-1 0  9993,2 53934  53.2119  46.1070 0001315  81.6057 354.7110 15.25676901 18532,6866.891,94.384,489.659,487.853,0.0
53934.0,STARLINK-4775,PAYLOAD,2023-01-18 14:00:01,15.24865805,0.0001398,53.2114,44.5728,74.0014,33.6319,-0.049857,-0.01157849,0.0,0 STARLINK-4775,1 53934U 22119BA  23018.58334491 -.01157849  00000-0 -49857-1 0  9991,2 53934  53.2114  44.5728 0001398  74.0014  33.6319 15.24865805  1302,6869.325,94.435,492.151,490.23,0.0
53934.0,STARLINK-4775,PAYLOAD,2023-01-18 22:00:00,15.24019332,0.0001424,53.2115,43.0382,87.6109,50.3814,-0.048779,-0.01094162,0.0,0 STARLINK-4775,1 53934U 22119BA  23018.91667824 -.01094162  00000-0 -48779-1 0  9997,2 53934  53.2115  43.0382 0001424  87.6109  50.3814 15.24019332  1300,6871.869000000001,94.487,494.712,492.755,0.0
53934.0,STARLINK-4775,PAYLOAD,2023-01-19 14:00:01,15.22432073,0.0001471,53.2111,39.9798,82.3833,113.3501,-0.054309,-0.01171504,0.0,0 STARLINK-4775,1 53934U 22119BA  23019.58334491 -.01171504  00000-0 -54309-1 0  9994,2 53934  53.2111  39.9798 0001471  82.3833 113.3501 15.22432073 18736,6876.644,94.586,499.521,497.4980000000001,0.0
53934.0,STARLINK-4775,PAYLOAD,2023-01-20 16:00:00,15.19799158,0.0001315,53.2107,35.0224,85.1277,286.1173,-0.060229,-0.01199663,0.0,0 STARLINK-4775,1 53934U 22119BA  23020.66667824 -.01199663  00000-0 -60229-1 0  9998,2 53934  53.2107  35.0224 0001315  85.1277 286.1173 15.19799158  1307,6884.584,94.749,507.354,505.544,0.0
53934.0,STARLINK-4775,PAYLOAD,2023-01-20 22:00:00,15.19142028,0.000138,53.2108,33.8804,100.4492,199.0772,-0.056691,-0.01114557,0.0,0 STARLINK-4775,1 53934U 22119BA  23020.91667824 -.01114557  00000-0 -56691-1 0  9993,2 53934  53.2108  33.8804 0001380 100.4492 199.0772 15.19142028 18943,6886.569,94.79,509.385,507.484,0.0
53934.0,STARLINK-4775,PAYLOAD,2023-01-21 14:00:01,15.17557786,0.0001247,53.2104,30.8444,86.5217,259.0129,-0.063675,-0.01189147,0.0,0 STARLINK-4775,1 53934U 22119BA  23021.58334491 -.01189147  00000-0 -63675-1 0  9995,2 53934  53.2104  30.8444 0001247  86.5217 259.0129 15.17557786 19041,6891.361,94.889,514.086,512.367,0.0
53934.0,STARLINK-4775,PAYLOAD,2023-01-22 06:00:00,15.15901501,0.0001325,53.2105,27.8144,88.8339,298.8233,-0.064295,-0.01148283,0.0,0 STARLINK-4775,1 53934U 22119BA  23022.25001157 -.01148283  00000-0 -64295-1 0  9995,2 53934  53.2105  27.8144 0001325  88.8339 298.8233 15.15901501 19146,6896.38,94.993,519.159,517.331,0.0
53934.0,STARLINK-4775,PAYLOAD,2023-01-23 06:00:02,15.13457845,0.0001418,53.2102,23.2838,87.6141,355.9399,-0.068651,-0.01144146,0.0,0 STARLINK-4775,1 53934U 22119BA  23023.25002315 -.01144146  00000-0 -68651-1 0  9997,2 53934  53.2102  23.2838 0001418  87.6141 355.9399 15.13457845 19293,6903.801,95.146,526.645,524.687,0.0
53934.0,STARLINK-4775,PAYLOAD,2023-01-24 06:00:00,15.11013121,0.0001533,53.2099,18.7704,77.7174,52.8069,-0.073077,-0.01137736,0.0,0 STARLINK-4775,1 53934U 22119BA  23024.25001157 -.01137736  00000-0 -73077-1 0  9996,2 53934  53.2099  18.7704 0001533  77.7174  52.8069 15.11013121 19440,6911.246,95.3,534.17,532.0509999999999,0.0
53934.0,STARLINK-4775,PAYLOAD,2023-01-24 22:00:00,15.09188957,0.0001534,53.2099,15.7692,97.7344,59.2824,-0.031331,-0.00476217,0.0,0 STARLINK-4775,1 53934U 22119BA  23024.91667824 -.00476217  00000-0 -31331-1 0  9994,2 53934  53.2099  15.7692 0001534  97.7344  59.2824 15.09188957 19543,6916.814,95.415,539.74,537.618,0.0
53934.0,STARLINK-4775,PAYLOAD,2023-01-25 06:00:00,15.08836644,0.0001694,53.2099,14.274,90.7398,78.0789,-0.0011363,-0.00018325,0.0,0 STARLINK-4775,1 53934U 22119BA  23025.25001157 -.00018325  00000-0 -11363-2 0  9999,2 53934  53.2099  14.2740 0001694  90.7398  78.0789 15.08836644 19596,6917.891,95.438,540.928,538.5840000000001,0.0
53934.0,STARLINK-4775,PAYLOAD,2023-01-25 14:00:01,15.08836123,0.000154,53.2098,12.7768,91.84,88.5672,-0.00029258,-4.941e-05,0.0,0 STARLINK-4775,1 53934U 22119BA  23025.58334491 -.00004941  00000-0 -29258-3 0  9997,2 53934  53.2098  12.7768 0001540  91.8400  88.5672 15.08836123  1303,6917.892,95.438,540.823,538.692,0.0
53934.0,STARLINK-4775,PAYLOAD,2023-01-25 22:00:00,15.08830375,0.0001624,53.2108,11.279000000000002,98.2249,93.7714,0.003353,0.00053466,0.0,0 STARLINK-4775,1 53934U 22119BA  23025.91667824  .00053466  00000-0  33530-2 0  9994,2 53934  53.2108  11.2790 0001624  98.2249  93.7714 15.08830375 19698,6917.91,95.438,540.898,538.651,0.0
53934.0,STARLINK-4775,PAYLOAD,2023-01-26 06:00:00,15.08888799,0.0001639,53.2117,9.7841,85.1755,118.4311,-0.0087458,-0.00137026,0.0,0 STARLINK-4775,1 53934U 22119BA  23026.25001157 -.00137026  00000-0 -87458-2 0  9998,2 53934  53.2117   9.7841 0001639  85.1755 118.4311 15.08888799 19747,6917.731,95.434,540.73,538.462,0.0
53934.0,STARLINK-4775,PAYLOAD,2023-01-26 14:00:01,15.08807506,0.0001594,53.2126,8.287,79.578,135.6223,-0.00023923,-4.09e-05,0.0,0 STARLINK-4775,1 53934U 22119BA  23026.58334491 -.00004090  00000-0 -23923-3 0  9996,2 53934  53.2126   8.2870 0001594  79.5780 135.6223 15.08807506  1301,6917.98,95.44,540.947,538.742,0.0
53934.0,STARLINK-4775,PAYLOAD,2023-01-27 06:00:00,15.08838211,0.0001593,53.2129,5.2948,80.2503,158.0869,-0.0020345,-0.0003252,0.0,0 STARLINK-4775,1 53934U 22119BA  23027.25001157 -.00032520  00000-0 -20345-2 0  9994,2 53934  53.2129   5.2948 0001593  80.2503 158.0869 15.08838211 19893,6917.886,95.438,540.8530000000001,538.649,0.0
53934.0,STARLINK-4775,PAYLOAD,2023-01-27 14:00:01,15.08833226,0.0001452,53.213,3.7975,82.2829,167.6272,-0.00069816,-0.0001137999999999,0.0,0 STARLINK-4775,1 53934U 22119BA  23027.58334491 -.00011380  00000-0 -69816-3 0  9998,2 53934  53.2130   3.7975 0001452  82.2829 167.6272 15.08833226  1307,6917.901,95.438,540.771,538.762,0.0
53934.0,STARLINK-4775,PAYLOAD,2023-01-27 22:00:00,15.0882659,0.0001506999999999,53.214,2.3001,91.0712,170.4151,0.002806,0.00044636,0.0,0 STARLINK-4775,1 53934U 22119BA  23027.91667824  .00044636  00000-0  28060-2 0  9997,2 53934  53.2140   2.3001 0001507  91.0712 170.4151 15.08826590  1307,6917.920999999999,95.438,540.8290000000001,538.744,0.0
53934.0,STARLINK-4775,PAYLOAD,2023-01-28 01:36:55,15.08829369,0.0001520999999999,53.2123,1.6235,91.0479,269.0688,-2.0433e-05,-6.13e-06,0.0,0 STARLINK-4775,1 53934U 22119BA  23028.06730422 -.00000613  00000-0 -20433-4 0  9996,2 53934  53.2123   1.6235 0001521  91.0479 269.0688 15.08829369 20022,6917.9130000000005,95.438,540.83,538.726,0.0
53934.0,STARLINK-4775,PAYLOAD,2023-01-28 07:58:27,15.0883584,0.0001622,53.2133,0.4312,110.9591,249.1575,4.4039e-05,4.13e-06,0.0,0 STARLINK-4775,1 53934U 22119BA  23028.33225777  .00000413  00000-0  44039-4 0  9992,2 53934  53.2133   0.4312 0001622 110.9591 249.1575 15.08835840 20063,6917.893,95.438,540.88,538.636,0.0
53934.0,STARLINK-4775,PAYLOAD,2023-01-29 01:27:41,15.08841601,0.0001419,53.2145,357.1637,82.3011,277.8142,0.00010601,1.4e-05,0.0,0 STARLINK-4775,1 53934U 22119BA  23029.06089251  .00001400  00000-0  10601-3 0  9992,2 53934  53.2145 357.1637 0001419  82.3011 277.8142 15.08841601 20173,6917.875,95.437,540.722,538.759,0.0
53934.0,STARLINK-4775,PAYLOAD,2023-01-29 07:49:12,15.08853775,0.0001474,53.2148,355.9738,89.3183,270.7978,0.00018172,2.606e-05,0.0,0 STARLINK-4775,1 53934U 22119BA  23029.32584107  .00002606  00000-0  18172-3 0  9991,2 53934  53.2148 355.9738 0001474  89.3183 270.7978 15.08853775 20211,6917.838,95.437,540.723,538.684,0.0
53934.0,STARLINK-4775,PAYLOAD,2023-01-29 22:07:42,15.08838327,0.0001605,53.2143,353.297,89.739,270.3786,-7.7216e-05,-1.517e-05,0.0,0 STARLINK-4775,1 53934U 22119BA  23029.92202234 -.00001517  00000-0 -77216-4 0  9992,2 53934  53.2143 353.2970 0001605  89.7390 270.3786 15.08838327 20742,6917.886,95.438,540.861,538.64,0.0
